{"type": "FeatureCollection", "features": [ {"type": "Feature", "properties": {"norad_id": 31772, "name": "FENGYUN 1C DEB", "group": "fengyun-1c-debris", "lat": -31.253452296260132, "lon": -95.66829640912063, "alt_km": 952.2060089176912, "timestamp": "2025-12-07T09:35:10.074506+00:00", "meta": {"OBJECT_NAME": "FENGYUN 1C DEB", "OBJECT_ID": "1999-025CFX", "EPOCH": "2025-12-02T05:33:26.479008", "MEAN_MOTION": 14.11635308, "ECCENTRICITY": 0.0135819, "INCLINATION": 98.4716, "RA_OF_ASC_NODE": 254.2606, "ARG_OF_PERICENTER": 143.9036, "MEAN_ANOMALY": 217.1401, "EPHEMERIS_TYPE": 0, "CLASSIFICATION_TYPE": "U", "NORAD_CAT_ID": 31772, "ELEMENT_SET_NO": 999, "REV_AT_EPOCH": 70735, "BSTAR": 0.0011634, "MEAN_MOTION_DOT": 2.268e-05, "MEAN_MOTION_DDOT": 0}, "tle": {"line1": "1 31772U 99025CFX 25336.23155647  .00002268  00000+0  11634-2 0  9991", "line2": "2 31772  98.4716 254.2606 0135819 143.9036 217.1401 14.11635308707355"}}, "geometry": {"type": "Point", "coordinates": [-95.66829640912063, -31.253452296260132]}}, {"type": "Feature", "properties": {"norad_id": 31773, "name": "FENGYUN 1C DEB", "group": "fengyun-1c-debris", "lat": -47.597199095135345, "lon": -18.283137217760327, "alt_km": 671.2371355415362, "timestamp": "2025-12-07T09:35:10.074516+00:00", "meta": {"OBJECT_NAME": "FENGYUN 1C DEB", "OBJECT_ID": "1999-025CFY", "EPOCH": "2025-12-01T05:23:44.833344", "MEAN_MOTION": 14.72359777, "ECCENTRICITY": 0.0038605, "INCLINATION": 98.9488, "RA_OF_ASC_NODE": 324.9883, "ARG_OF_PERICENTER": 215.5051, "MEAN_ANOMALY": 144.3583, "EPHEMERIS_TYPE": 0, "CLASSIFICATION_TYPE": "U", "NORAD_CAT_ID": 31773, "ELEMENT_SET_NO": 999, "REV_AT_EPOCH": 65005, "BSTAR": 0.0025423, "MEAN_MOTION_DOT": 0.00016254, "MEAN_MOTION_DDOT": 0}, "tle": {"line1": "1 31773U 99025CFY 25335.22482446  .00016254  00000+0  25423-2 0  9991", "line2": "2 31773  98.9488 324.9883 0038605 215.5051 144.3583 14.72359777650053"}}, "geometry": {"type": "Point", "coordinates": [-18.283137217760327, -47.597199095135345]}}, {"type": "Feature", "properties": {"norad_id": 31776, "name": "FENGYUN 1C DEB", "group": "fengyun-1c-debris", "lat": -12.505785090006881, "lon": 43.0533768255313, "alt_km": 795.665607922384, "timestamp": "2025-12-07T09:35:10.074526+00:00", "meta": {"OBJECT_NAME": "FENGYUN 1C DEB", "OBJECT_ID": "1999-025CGB", "EPOCH": "2025-12-06T15:44:53.565792", "MEAN_MOTION": 14.18501256, "ECCENTRICITY": 0.00543222, "INCLINATION": 99.0751, "RA_OF_ASC_NODE": 40.2618, "ARG_OF_PERICENTER": 352.4924, "MEAN_ANOMALY": 161.6256, "EPHEMERIS_TYPE": 0, "CLASSIFICATION_TYPE": "U", "NORAD_CAT_ID": 31776, "ELEMENT_SET_NO": 999, "REV_AT_EPOCH": 94794, "BSTAR": 0.0023507252, "MEAN_MOTION_DOT": 4.887e-05, "MEAN_MOTION_DDOT": 0}, "tle": {"line1": "1 31776U 99025CGB 25340.65617553  .00004887  00000+0  23507-2 0  9996", "line2": "2 31776  99.0751  40.2618 0054322 352.4924 161.6256 14.18501256947946"}}, "geometry": {"type": "Point", "coordinates": [43.0533768255313, -12.505785090006881]}}, {"type": "Feature", "properties": {"norad_id": 31779, "name": "FENGYUN 1C DEB", "group": "fengyun-1c-debris", "lat": -26.529265197709716, "lon": 76.20247090918161, "alt_km": 608.503922578624, "timestamp": "2025-12-07T09:35:10.074536+00:00", "meta": {"OBJECT_NAME": "FENGYUN 1C DEB", "OBJECT_ID": "1999-025CGE", "EPOCH": "2025-12-05T13:18:58.519008", "MEAN_MOTION": 14.41571273, "ECCENTRICITY": 0.02129967, "INCLINATION": 99.2975, "RA_OF_ASC_NODE": 258.8857, "ARG_OF_PERICENTER": 204.0278, "MEAN_ANOMALY": 155.0856, "EPHEMERIS_TYPE": 0, "CLASSIFICATION_TYPE": "U", "NORAD_CAT_ID": 31779, "ELEMENT_SET_NO": 999, "REV_AT_EPOCH": 96906, "BSTAR": 0.00050937089, "MEAN_MOTION_DOT": 2.11e-05, "MEAN_MOTION_DDOT": 0}, "tle": {"line1": "1 31779U 99025CGE 25339.55484397  .00002110  00000+0  50937-3 0  9999", "line2": "2 31779  99.2975 258.8857 0212996 204.0278 155.0856 14.41571273969060"}}, "geometry": {"type": "Point", "coordinates": [76.20247090918161, -26.529265197709716]}}, {"type": "Feature", "properties": {"norad_id": 31780, "name": "FENGYUN 1C DEB", "group": "fengyun-1c-debris", "lat": -10.766157386211514, "lon": 135.08205175697645, "alt_km": 647.391351416697, "timestamp": "2025-12-07T09:35:10.074546+00:00", "meta": {"OBJECT_NAME": "FENGYUN 1C DEB", "OBJECT_ID": "1999-025CGF", "EPOCH": "2025-12-04T16:16:09.846336", "MEAN_MOTION": 14.69489035, "ECCENTRICITY": 0.015109, "INCLINATION": 99.2854, "RA_OF_ASC_NODE": 130.207, "ARG_OF_PERICENTER": 77.85, "MEAN_ANOMALY": 283.9582, "EPHEMERIS_TYPE": 0, "CLASSIFICATION_TYPE": "U", "NORAD_CAT_ID": 31780, "ELEMENT_SET_NO": 999, "REV_AT_EPOCH": 98379, "BSTAR": 0.00062815, "MEAN_MOTION_DOT": 4.368e-05, "MEAN_MOTION_DDOT": 0}, "tle": {"line1": "1 31780U 99025CGF 25338.67789174  .00004368  00000+0  62815-3 0  9999", "line2": "2 31780  99.2854 130.2070 0151090  77.8500 283.9582 14.69489035983796"}}, "geometry": {"type": "Point", "coordinates": [135.08205175697645, -10.766157386211514]}}, {"type": "Feature", "properties": {"norad_id": 31781, "name": "FENGYUN 1C DEB", "group": "fengyun-1c-debris", "lat": 53.11820932530403, "lon": -15.137524836442463, "alt_km": 984.924660743517, "timestamp": "2025-12-07T09:35:10.074558+00:00", "meta": {"OBJECT_NAME": "FENGYUN 1C DEB", "OBJECT_ID": "1999-025CGG", "EPOCH": "2025-12-06T17:40:58.002816", "MEAN_MOTION": 14.12834979, "ECCENTRICITY": 0.020359, "INCLINATION": 99.4971, "RA_OF_ASC_NODE": 151.2686, "ARG_OF_PERICENTER": 290.4351, "MEAN_ANOMALY": 67.5063, "EPHEMERIS_TYPE": 0, "CLASSIFICATION_TYPE": "U", "NORAD_CAT_ID": 31781, "ELEMENT_SET_NO": 999, "REV_AT_EPOCH": 68263, "BSTAR": 0.0057062026, "MEAN_MOTION_DOT": 0.00012887, "MEAN_MOTION_DDOT": 0}, "tle": {"line1": "1 31781U 99025CGG 25340.73678244  .00012887  00000+0  57062-2 0  9997", "line2": "2 31781  99.4971 151.2686 0203590 290.4351  67.5063 14.12834979682633"}}, "geometry": {"type": "Point", "coordinates": [-15.137524836442463, 53.11820932530403]}}, {"type": "Feature", "properties": {"norad_id": 31782, "name": "FENGYUN 1C DEB", "group": "fengyun-1c-debris", "lat": 38.64578369391586, "lon": -30.38879882265298, "alt_km": 802.9114925706708, "timestamp": "2025-12-07T09:35:10.074569+00:00", "meta": {"OBJECT_NAME": "FENGYUN 1C DEB", "OBJECT_ID": "1999-025CGH", "EPOCH": "2025-12-05T22:31:18.400224", "MEAN_MOTION": 14.36210758, "ECCENTRICITY": 0.00797978, "INCLINATION": 98.904, "RA_OF_ASC_NODE": 140.901, "ARG_OF_PERICENTER": 17.0263, "MEAN_ANOMALY": 133.2697, "EPHEMERIS_TYPE": 0, "CLASSIFICATION_TYPE": "U", "NORAD_CAT_ID": 31782, "ELEMENT_SET_NO": 999, "REV_AT_EPOCH": 96593, "BSTAR": 0.00060247171, "MEAN_MOTION_DOT": 1.775e-05, "MEAN_MOTION_DDOT": 0}, "tle": {"line1": "1 31782U 99025CGH 25339.93840741  .00001775  00000+0  60247-3 0  9995", "line2": "2 31782  98.9040 140.9010 0079797  17.0263 133.2697 14.36210758965936"}}, "geometry": {"type": "Point", "coordinates": [-30.38879882265298, 38.64578369391586]}}, {"type": "Feature", "properties": {"norad_id": 31783, "name": "FENGYUN 1C DEB", "group": "fengyun-1c-debris", "lat": -25.550694024890607, "lon": 166.14824017736288, "alt_km": 927.3491911762148, "timestamp": "2025-12-07T09:35:10.074579+00:00", "meta": {"OBJECT_NAME": "FENGYUN 1C DEB", "OBJECT_ID": "1999-025CGJ", "EPOCH": "2025-12-06T07:08:02.355936", "MEAN_MOTION": 14.08810427, "ECCENTRICITY": 0.01045861, "INCLINATION": 98.6049, "RA_OF_ASC_NODE": 349.2471, "ARG_OF_PERICENTER": 68.1166, "MEAN_ANOMALY": 310.0856, "EPHEMERIS_TYPE": 0, "CLASSIFICATION_TYPE": "U", "NORAD_CAT_ID": 31783, "ELEMENT_SET_NO": 999, "REV_AT_EPOCH": 89130, "BSTAR": 0.00093056398, "MEAN_MOTION_DOT": 1.648e-05, "MEAN_MOTION_DDOT": 0}, "tle": {"line1": "1 31783U 99025CGJ 25340.29724949  .00001648  00000+0  93056-3 0  9991", "line2": "2 31783  98.6049 349.2471 0104586  68.1166 310.0856 14.08810427891301"}}, "geometry": {"type": "Point", "coordinates": [166.14824017736288, -25.550694024890607]}}, {"type": "Feature", "properties": {"norad_id": 31788, "name": "FENGYUN 1C DEB", "group": "fengyun-1c-debris", "lat": 0.1819066397462996, "lon": 123.00194213717593, "alt_km": 1127.5341046180656, "timestamp": "2025-12-07T09:35:10.074593+00:00", "meta": {"OBJECT_NAME": "FENGYUN 1C DEB", "OBJECT_ID": "1999-025CGP", "EPOCH": "2025-12-06T08:43:59.240640", "MEAN_MOTION": 13.45043576, "ECCENTRICITY": 0.04637237, "INCLINATION": 102.5581, "RA_OF_ASC_NODE": 121.7474, "ARG_OF_PERICENTER": 100.9085, "MEAN_ANOMALY": 292.672, "EPHEMERIS_TYPE": 0, "CLASSIFICATION_TYPE": "U", "NORAD_CAT_ID": 31788, "ELEMENT_SET_NO": 999, "REV_AT_EPOCH": 90519, "BSTAR": 0.0047416051, "MEAN_MOTION_DOT": 5.291e-05, "MEAN_MOTION_DDOT": 0}, "tle": {"line1": "1 31788U 99025CGP 25340.36388010  .00005291  00000+0  47416-2 0  9995", "line2": "2 31788 102.5581 121.7474 0463723 100.9085 292.6720 13.45043576905195"}}, "geometry": {"type": "Point", "coordinates": [123.00194213717593, 0.1819066397462996]}}, {"type": "Feature", "properties": {"norad_id": 31805, "name": "FENGYUN 1C DEB", "group": "fengyun-1c-debris", "lat": -24.172851008324635, "lon": 142.20995937869645, "alt_km": 605.7225848097978, "timestamp": "2025-12-07T09:35:10.074603+00:00", "meta": {"OBJECT_NAME": "FENGYUN 1C DEB", "OBJECT_ID": "1999-025CGT", "EPOCH": "2025-12-01T05:23:40.108128", "MEAN_MOTION": 14.02670631, "ECCENTRICITY": 0.0447098, "INCLINATION": 98.3662, "RA_OF_ASC_NODE": 320.3008, "ARG_OF_PERICENTER": 191.6465, "MEAN_ANOMALY": 167.4086, "EPHEMERIS_TYPE": 0, "CLASSIFICATION_TYPE": "U", "NORAD_CAT_ID": 31805, "ELEMENT_SET_NO": 999, "REV_AT_EPOCH": 62202, "BSTAR": 0.0013339, "MEAN_MOTION_DOT": 4.977e-05, "MEAN_MOTION_DDOT": 0}, "tle": {"line1": "1 31805U 99025CGT 25335.22476977  .00004977  00000+0  13339-2 0  9991", "line2": "2 31805  98.3662 320.3008 0447098 191.6465 167.4086 14.02670631622027"}}, "geometry": {"type": "Point", "coordinates": [142.20995937869645, -24.172851008324635]}}]}